ORBCOMM FM37            
1 33064U 08031E   25090.16388719  .00003313  00000+0  46759-3 0  9990
2 33064  48.4409 354.4705 0005390  36.3368 117.5897 14.79372212902491
ORBCOMM FM40            
1 33065U 08031F   25090.18926530  .00003899  00000+0  51871-3 0  9992
2 33065  48.4424 339.6621 0006498  50.8615  87.0841 14.81507444902598
VESSELSAT 1             
1 37840U 11058C   25090.61083829  .00000477  00000+0  11548-3 0  9999
2 37840  19.9606 203.2969 0013790  53.4920 306.6753 14.11331744695334
ORBCOMM FM109           
1 40086U 14040A   25090.54943869  .00001661  00000+0  39469-3 0  9998
2 40086  47.0044  22.9222 0002250 331.0652  29.0108 14.57995869569853
ORBCOMM FM107           
1 40087U 14040B   25090.51294782  .00001633  00000+0  38804-3 0  9990
2 40087  47.0058  24.0855 0001933 289.0873  70.9803 14.58057771569802
ORBCOMM FM106           
1 40088U 14040C   25090.57822309  .00002601  00000+0  46810-3 0  9991
2 40088  47.0593 212.0779 0016016  65.8808 294.3756 14.69183094572068
ORBCOMM FM111           
1 40089U 14040D   25090.36467217  .00005301  00000+0  62315-3 0  9990
2 40089  47.0009  73.6952 0029920 181.3301 178.7520 14.85724951578651
ORBCOMM FM104           
1 40090U 14040E   25090.41650243  .00001453  00000+0  36083-3 0  9998
2 40090  47.0054  57.2180 0016586 212.7456 147.2401 14.56482534569282
